{
  "type": "FeatureCollection",
  "features": [
    {
      "type": "Feature",
      "properties": {
        "norad_id": 31899,
        "name": "FENGYUN 1C DEB",
        "group": "fengyun-1c-debris",
        "lat": -73.12346192870287,
        "lon": 84.62838097534296,
        "alt_km": 993.6032925552781,
        "timestamp": "2025-12-04T23:34:06.007518+00:00",
        "meta_object_name": "FENGYUN 1C DEB",
        "meta_object_id": "1999-025CLA",
        "meta_epoch": "2025-12-04T10:04:15.646656",
        "meta_mean_motion": 13.83474311,
        "meta_eccentricity": 0.0183513,
        "meta_inclination": 102.084,
        "meta_ra_of_asc_node": 38.9874,
        "meta_arg_of_pericenter": 177.1962,
        "meta_mean_anomaly": 183.0254,
        "meta_ephemeris_type": 0,
        "meta_classification_type": "U",
        "meta_norad_cat_id": 31899,
        "meta_element_set_no": 999,
        "meta_rev_at_epoch": 67449,
        "meta_bstar": 0.0027468,
        "meta_mean_motion_dot": 3.381e-05,
        "meta_mean_motion_ddot": 0,
        "tle_line1": "1 31899U 99025CLA 25338.41962554  .00003381  00000+0  27468-2 0  9995",
        "tle_line2": "2 31899 102.0840  38.9874 0183513 177.1962 183.0254 13.83474311674498"
      },
      "geometry": {
        "type": "Point",
        "coordinates": [
          84.62838097534296,
          -73.12346192870287
        ]
      }
    },
    {
      "type": "Feature",
      "properties": {
        "norad_id": 31901,
        "name": "FENGYUN 1C DEB",
        "group": "fengyun-1c-debris",
        "lat": 81.23430429712933,
        "lon": -138.19615595053142,
        "alt_km": 957.6870602835052,
        "timestamp": "2025-12-04T23:34:06.007530+00:00",
        "meta_object_name": "FENGYUN 1C DEB",
        "meta_object_id": "1999-025CLC",
        "meta_epoch": "2025-11-24T16:49:26.112288",
        "meta_mean_motion": 13.94131429,
        "meta_eccentricity": 0.01304065,
        "meta_inclination": 98.5981,
        "meta_ra_of_asc_node": 291.1031,
        "meta_arg_of_pericenter": 239.8126,
        "meta_mean_anomaly": 119.0067,
        "meta_ephemeris_type": 0,
        "meta_classification_type": "U",
        "meta_norad_cat_id": 31901,
        "meta_element_set_no": 999,
        "meta_rev_at_epoch": 63156,
        "meta_bstar": 0.00020072941,
        "meta_mean_motion_dot": 2.45e-06,
        "meta_mean_motion_ddot": 0,
        "tle_line1": "1 31901U 99025CLC 25328.70099667  .00000245  00000+0  20073-3 0  9998",
        "tle_line2": "2 31901  98.5981 291.1031 0130406 239.8126 119.0067 13.94131429631560"
      },
      "geometry": {
        "type": "Point",
        "coordinates": [
          -138.19615595053142,
          81.23430429712933
        ]
      }
    },
    {
      "type": "Feature",
      "properties": {
        "norad_id": 31902,
        "name": "FENGYUN 1C DEB",
        "group": "fengyun-1c-debris",
        "lat": 25.650243169591548,
        "lon": -45.006760509178164,
        "alt_km": 919.7873600446774,
        "timestamp": "2025-12-04T23:34:06.007546+00:00",
        "meta_object_name": "FENGYUN 1C DEB",
        "meta_object_id": "1999-025CLD",
        "meta_epoch": "2025-12-02T04:14:16.253664",
        "meta_mean_motion": 14.23259815,
        "meta_eccentricity": 0.01802185,
        "meta_inclination": 98.506,
        "meta_ra_of_asc_node": 316.4015,
        "meta_arg_of_pericenter": 179.9223,
        "meta_mean_anomaly": 241.1553,
        "meta_ephemeris_type": 0,
        "meta_classification_type": "U",
        "meta_norad_cat_id": 31902,
        "meta_element_set_no": 999,
        "meta_rev_at_epoch": 64641,
        "meta_bstar": 0.00023773916,
        "meta_mean_motion_dot": 5.92e-06,
        "meta_mean_motion_ddot": 0,
        "tle_line1": "1 31902U 99025CLD 25336.17657701  .00000592  00000+0  23774-3 0  9994",
        "tle_line2": "2 31902  98.5060 316.4015 0180218 179.9223 241.1553 14.23259815646410"
      },
      "geometry": {
        "type": "Point",
        "coordinates": [
          -45.006760509178164,
          25.650243169591548
        ]
      }
    },
    {
      "type": "Feature",
      "properties": {
        "norad_id": 31903,
        "name": "FENGYUN 1C DEB",
        "group": "fengyun-1c-debris",
        "lat": -77.67863116461288,
        "lon": 14.903046801942711,
        "alt_km": 770.42751612766,
        "timestamp": "2025-12-04T23:34:06.007557+00:00",
        "meta_object_name": "FENGYUN 1C DEB",
        "meta_object_id": "1999-025CLE",
        "meta_epoch": "2025-12-04T05:51:23.817024",
        "meta_mean_motion": 14.60387992,
        "meta_eccentricity": 0.0130464,
        "meta_inclination": 99.2735,
        "meta_ra_of_asc_node": 325.6576,
        "meta_arg_of_pericenter": 61.4315,
        "meta_mean_anomaly": 299.994,
        "meta_ephemeris_type": 0,
        "meta_classification_type": "U",
        "meta_norad_cat_id": 31903,
        "meta_element_set_no": 999,
        "meta_rev_at_epoch": 97271,
        "meta_bstar": 0.001501,
        "meta_mean_motion_dot": 8.135e-05,
        "meta_mean_motion_ddot": 0,
        "tle_line1": "1 31903U 99025CLE 25338.24402566  .00008135  00000+0  15010-2 0  9996",
        "tle_line2": "2 31903  99.2735 325.6576 0130464  61.4315 299.9940 14.60387992972712"
      },
      "geometry": {
        "type": "Point",
        "coordinates": [
          14.903046801942711,
          -77.67863116461288
        ]
      }
    },
    {
      "type": "Feature",
      "properties": {
        "norad_id": 31905,
        "name": "FENGYUN 1C DEB",
        "group": "fengyun-1c-debris",
        "lat": 55.02618247217726,
        "lon": -58.53268617660243,
        "alt_km": 704.2529905415131,
        "timestamp": "2025-12-04T23:34:06.007568+00:00",
        "meta_object_name": "FENGYUN 1C DEB",
        "meta_object_id": "1999-025CLG",
        "meta_epoch": "2025-12-02T09:18:23.956992",
        "meta_mean_motion": 14.33047046,
        "meta_eccentricity": 0.01967083,
        "meta_inclination": 99.1496,
        "meta_ra_of_asc_node": 312.0469,
        "meta_arg_of_pericenter": 123.9216,
        "meta_mean_anomaly": 238.0844,
        "meta_ephemeris_type": 0,
        "meta_classification_type": "U",
        "meta_norad_cat_id": 31905,
        "meta_element_set_no": 999,
        "meta_rev_at_epoch": 96476,
        "meta_bstar": 0.00054589805,
        "meta_mean_motion_dot": 1.802e-05,
        "meta_mean_motion_ddot": 0,
        "tle_line1": "1 31905U 99025CLG 25336.38777728  .00001802  00000+0  54590-3 0  9997",
        "tle_line2": "2 31905  99.1496 312.0469 0196708 123.9216 238.0844 14.33047046964761"
      },
      "geometry": {
        "type": "Point",
        "coordinates": [
          -58.53268617660243,
          55.02618247217726
        ]
      }
    },
    {
      "type": "Feature",
      "properties": {
        "norad_id": 31906,
        "name": "FENGYUN 1C DEB",
        "group": "fengyun-1c-debris",
        "lat": -72.77542682497324,
        "lon": 141.74873430505403,
        "alt_km": 846.291942447584,
        "timestamp": "2025-12-04T23:34:06.007579+00:00",
        "meta_object_name": "FENGYUN 1C DEB",
        "meta_object_id": "1999-025CLH",
        "meta_epoch": "2025-12-02T08:07:18.814944",
        "meta_mean_motion": 14.24439435,
        "meta_eccentricity": 0.00534026,
        "meta_inclination": 98.6932,
        "meta_ra_of_asc_node": 109.5617,
        "meta_arg_of_pericenter": 153.8908,
        "meta_mean_anomaly": 261.8139,
        "meta_ephemeris_type": 0,
        "meta_classification_type": "U",
        "meta_norad_cat_id": 31906,
        "meta_element_set_no": 999,
        "meta_rev_at_epoch": 94981,
        "meta_bstar": 0.0030581492,
        "meta_mean_motion_dot": 7.149e-05,
        "meta_mean_motion_ddot": 0,
        "tle_line1": "1 31906U 99025CLH 25336.33841221  .00007149  00000+0  30581-2 0  9996",
        "tle_line2": "2 31906  98.6932 109.5617 0053402 153.8908 261.8139 14.24439435949815"
      },
      "geometry": {
        "type": "Point",
        "coordinates": [
          141.74873430505403,
          -72.77542682497324
        ]
      }
    },
    {
      "type": "Feature",
      "properties": {
        "norad_id": 31910,
        "name": "FENGYUN 1C DEB",
        "group": "fengyun-1c-debris",
        "lat": -52.40161426089736,
        "lon": 170.84724805245128,
        "alt_km": 641.9021988412596,
        "timestamp": "2025-12-04T23:34:06.007589+00:00",
        "meta_object_name": "FENGYUN 1C DEB",
        "meta_object_id": "1999-025CLM",
        "meta_epoch": "2025-12-03T08:20:51.597024",
        "meta_mean_motion": 14.47542002,
        "meta_eccentricity": 0.022761,
        "meta_inclination": 97.666,
        "meta_ra_of_asc_node": 359.4375,
        "meta_arg_of_pericenter": 184.5972,
        "meta_mean_anomaly": 175.3136,
        "meta_ephemeris_type": 0,
        "meta_classification_type": "U",
        "meta_norad_cat_id": 31910,
        "meta_element_set_no": 999,
        "meta_rev_at_epoch": 64233,
        "meta_bstar": 0.0010343,
        "meta_mean_motion_dot": 5.229e-05,
        "meta_mean_motion_ddot": 0,
        "tle_line1": "1 31910U 99025CLM 25337.34781941  .00005229  00000+0  10343-2 0  9996",
        "tle_line2": "2 31910  97.6660 359.4375 0227610 184.5972 175.3136 14.47542002642333"
      },
      "geometry": {
        "type": "Point",
        "coordinates": [
          170.84724805245128,
          -52.40161426089736
        ]
      }
    }
  ]
}